[{"OBJECT_NAME":"STARLINK-35477","OBJECT_ID":"2025-253V","EPOCH":"2026-03-09T09:57:46.940832","MEAN_MOTION":15.27582395,"ECCENTRICITY":0.00020924,"INCLINATION":42.9991,"RA_OF_ASC_NODE":213.9589,"ARG_OF_PERICENTER":275.6665,"MEAN_ANOMALY":84.3948,"EPHEMERIS_TYPE":0,"CLASSIFICATION_TYPE":"U","NORAD_CAT_ID":66338,"ELEMENT_SET_NO":999,"REV_AT_EPOCH":2020,"BSTAR":0.00092907269,"MEAN_MOTION_DOT":0.00025394,"MEAN_MOTION_DDOT":0},{"OBJECT_NAME":"DELTA 1 R\/B(2)","OBJECT_ID":"1984-088F","EPOCH":"2026-03-06T12:07:27.858720","MEAN_MOTION":1.58876622,"ECCENTRICITY":0.77916975,"INCLINATION":26.4649,"RA_OF_ASC_NODE":137.3294,"ARG_OF_PERICENTER":255.134,"MEAN_ANOMALY":15.3417,"EPHEMERIS_TYPE":0,"CLASSIFICATION_TYPE":"U","NORAD_CAT_ID":15206,"ELEMENT_SET_NO":999,"REV_AT_EPOCH":23684,"BSTAR":0.0046786491,"MEAN_MOTION_DOT":4.08e-6,"MEAN_MOTION_DDOT":0}]
